<!DOCTYPE html PUBLIC "-//W3C//DTD XHTML 1.0 Strict//EN" "http://www.w3.org/TR/xhtml1/DTD/xhtml1-strict.dtd">
<html xmlns="http://www.w3.org/1999/xhtml">
<head>
<meta http-equiv="Content-Type" content="text/html; charset=iso-8859-1"/>
<title>404 - File Not Found.</title>
<style type="text/css">
<!--
body{margin:0;font-size:.7em;font-family:Verdana, Arial, Helvetica, sans-serif;background:#EEEEEE;}
fieldset{padding:0 15px 10px 15px;}
h1{font-size:2.4em;margin:0;color:#FFF;}
h2{font-size:1.7em;margin:0;color:#CC0000;}
h3{font-size:1.2em;margin:10px 0 0 0;color:#000000;}
#header{width:96%;margin:0 0 0 0;padding:6px 2% 6px 2%;font-family:"trebuchet MS", Verdana, sans-serif;color:#FFF;
background-color:#555555;}
#content{margin:0 0 0 2%;position:relative;}
.content-container{background:#FFF;width:96%;margin-top:8px;padding:10px;position:relative;}
-->
</style>
</head>
<body>
<div id="header"><h1>Server Error</h1></div>
<div id="content">
 <div class="content-container"><fieldset>
  <h2>404 - File Not Found.</h2>
  <h3>File not found for celestrak.org/NORAD/elements/active.txt.</h3>
  <h3>Please contact <a href="mailto:ts.kelso@celestrak.org">ts.kelso@celestrak.org</a> if you have other questions.</h3>
 </fieldset></div>
</div>
</body>
</html>
YAMAL 401               
1 40345U 14082A   24049.12378288 -.00000236  00000+0  00000+0 0  9999
2 40345   0.0160 128.4124 0000243 342.7955 170.8738  1.00277460 33884
ASTRA 2G                
1 40364U 14089A   24049.03987160  .00000143  00000+0  00000+0 0  9998
2 40364   0.0507 323.5234 0003266  52.3186 174.1853  1.00268161 33498
FENGYUN 2G              
1 40367U 14090A   24049.05414332 -.00000312  00000+0  00000+0 0  9990
2 40367   3.4824  82.9254 0001292  55.4466 128.3988  1.00274109 33512
MUOS-3                  
1 40374U 15002A   24048.88784300 -.00000135  00000+0  00000+0 0  9990
2 40374   3.0727  32.5383 0054800 183.4577 235.4847  1.00271011 33063
INMARSAT 5-F2           
1 40384U 15005A   24049.09463028 -.00000292  00000+0  00000+0 0  9993
2 40384   0.0165 112.7488 0000300 159.5484 214.3072  1.00270914 33158
ABS-3A                  
1 40424U 15010A   24048.97549316 -.00000034  00000+0  00000+0 0  9999
2 40424   0.0178 101.1121 0001837 132.8537 261.6169  1.00270231 32841
EUTELSAT 115 WEST B     
1 40425U 15010B   24048.67492191 -.00000031  00000+0  00000+0 0  9992
2 40425   0.0079 249.6544 0000248 191.6434 193.9090  1.00271645 32865
EXPRESS-AM7             
1 40505U 15012A   24048.89898190  .00000144  00000+0  00000+0 0  9990
2 40505   0.0152  98.1249 0003136 211.5894 201.2239  1.00272456 32483
IRNSS-1D                
1 40547U 15018A   24048.98487330 -.00000258  00000+0  00000+0 0  9999
2 40547  27.7330 254.7754 0019286 176.9415 181.8745  1.00268001 32712
BEIDOU-3S IGSO-1S       
1 40549U 15019A   24046.76407766 -.00000181  00000+0  00000+0 0  9996
2 40549  50.7962 305.6342 0035318 193.5832  16.9245  1.00275882 32529
THOR 7                  
1 40613U 15022A   24048.60445310 -.00000015  00000+0  00000+0 0  9990
2 40613   0.0347 255.4703 0002777  66.9400  41.5790  1.00270841 32288
TURKMENALEM52E/MONACOSAT
1 40617U 15023A   24049.04413573  .00000097  00000+0  00000+0 0  9999
2 40617   0.0305 109.0757 0002778 219.2234 247.0747  1.00272628 32301
DIRECTV 15              
1 40663U 15026A   24049.14999652 -.00000109  00000+0  00000+0 0  9996
2 40663   0.0257  98.2520 0000733 105.4823 254.9853  1.00272183 32013
SKY MEXICO-1            
1 40664U 15026B   24049.09017069 -.00000241  00000+0  00000+0 0  9991
2 40664   0.0135 113.3430 0002245 220.2904 127.5878  1.00271794 32013
METEOSAT-11 (MSG-4)     
1 40732U 15034A   24049.10768368  .00000056  00000+0  00000+0 0  9996
2 40732   1.1000  65.2727 0002288 210.2239 280.1261  1.00274951 31483
STAR ONE C4             
1 40733U 15034B   24048.87713921 -.00000271  00000+0  00000+0 0  9995
2 40733   0.0303   0.0783 0002710 344.3223  48.6798  1.00270413 31491
WGS F7 (USA 263)        
1 40746U 15036A   24048.61245707  .00000011  00000+0  00000+0 0  9996
2 40746   0.0183 101.3244 0000114 143.9181 297.3229  1.00272766 31349
INTELSAT 34 (IS-34)     
1 40874U 15039A   24048.88001097 -.00000292  00000+0  00000+0 0  9994
2 40874   0.0250   2.1442 0000657 231.8539 174.6287  1.00272180 31093
EUTELSAT 8 WEST B       
1 40875U 15039B   24048.88940941 -.00000072  00000+0  00000+0 0  9991
2 40875   0.0667  12.9394 0004064 320.8087 125.7710  1.00271913 31129
GSAT-6                  
1 40880U 15041A   24049.12230351 -.00000167  00000+0  00000+0 0  9990
2 40880   0.1025 268.7761 0002250  44.6146 320.7186  1.00271057 31061
INMARSAT 5-F3           
1 40882U 15042A   24048.71192611  .00000044  00000+0  00000+0 0  9996
2 40882   0.0170 118.0847 0000093 114.6175 350.3234  1.00273132 31034
MUOS-4                  
1 40887U 15044A   24049.12065007 -.00000100  00000+0  00000+0 0  9991
2 40887   2.9540  29.1176 0056970 356.0902 240.7774  1.00271517 31028
TJS-1                   
1 40892U 15046A   24048.85024921 -.00000163  00000+0  00000+0 0  9997
2 40892   0.0896 104.2278 0003165 252.8256 251.3343  1.00273025 31035
EXPRESS-AM8             
1 40895U 15048A   24048.88827812 -.00000118  00000+0  00000+0 0  9995
2 40895   0.0132 137.5235 0000458 118.4267 197.1509  1.00271182 30812
BEIDOU-3S IGSO-2S       
1 40938U 15053A   24048.91665212 -.00000086  00000+0  00000+0 0  9991
2 40938  50.5444 268.8030 0048180 187.4018 115.7968  1.00290230 30822
SKY MUSTER 1 (NBN1A)    
1 40940U 15054A   24048.84729044 -.00000286  00000+0  00000+0 0  9993
2 40940   0.0066 146.9424 0001772 171.4718 274.1412  1.00270712 30731
ARSAT 2                 
1 40941U 15054B   24048.87496366 -.00000231  00000+0  00000+0 0  9995
2 40941   0.0346 305.5304 0001875  10.9697  64.7964  1.00271499 30783
MORELOS 3               
1 40946U 15056A   24048.72497951 -.00000045  00000+0  00000+0 0  9990
2 40946   3.0878 348.6149 0003184   1.3080 305.1304  1.00272005 30752
APSTAR 9                
1 40982U 15059A   24048.84763853 -.00000273  00000+0  00000+0 0  9996
2 40982   0.0160 163.0840 0001877 103.9163 327.4244  1.00270330 30599
TURKSAT 4B              
1 40984U 15060A   24048.93105215  .00000108  00000+0  00000+0 0  9998
2 40984   0.0329 288.3943 0002174  36.7714 207.3458  1.00269882 30570
CHINASAT 2C (ZX 2C)     
1 41021U 15063A   24049.05483951 -.00000330  00000+0  00000+0 0  9992
2 41021   0.0246 256.4090 0004090 149.7486 224.4749  1.00268963 30482
GSAT-15                 
1 41028U 15065A   24048.90224057 -.00000264  00000+0  00000+0 0  9990
2 41028   0.0858 274.2735 0001538  22.3855 268.9839  1.00271071 30276
BADR-7 (ARABSAT-6B)     
1 41029U 15065B   24048.91299317  .00000138  00000+0  00000+0 0  9992
2 41029   0.0457 239.0271 0004044  22.9463 240.0449  1.00269381 30248
LAOSAT 1                
1 41034U 15067A   24048.94841163 -.00000350  00000+0  00000+0 0  9992
2 41034   0.0371 286.2464 0002849 357.5421 333.4951  1.00268279 30339
TELSTAR 12V             
1 41036U 15068A   24048.88801705 -.00000126  00000+0  00000+0 0  9997
2 41036   0.0127 104.6357 0002669 225.2464 122.1203  1.00271365 30098
ELEKTRO-L 2             
1 41105U 15074A   24048.88810407 -.00000125  00000+0  00000+0 0  9999
2 41105   4.5345  80.9168 0003165 205.1785 166.4366  1.00272875 29981
COSMOS 2513             
1 41121U 15075A   24048.73799492 -.00000145  00000+0  00000+0 0  9994
2 41121   0.0467 107.6461 0002462 215.8432 169.6142  1.00272081 30005
EXPRESS-AMU1            
1 41191U 15082A   24048.89819869  .00000149  00000+0  00000+0 0  9990
2 41191   0.0129 124.1608 0003177 189.5240 193.0938  1.00269025 29749
GAOFEN-4                
1 41194U 15083A   24048.91215691 -.00000341  00000+0  00000+0 0  9995
2 41194   0.0933 280.8439 0007150 274.2767  26.3305  1.00268028 30007
BELINTERSAT-1           
1 41238U 16001A   24048.93346531  .00000100  00000+0  00000+0 0  9997
2 41238   0.0432 286.2986 0001956 318.5628 290.0557  1.00270269 29718
IRNSS-1E                
1 41241U 16003A   24048.48367080 -.00000312  00000+0  00000+0 0  9991
2 41241  31.3565  75.2837 0020343 189.6103 167.9692  1.00276859 29547
EUTELSAT 9B             
1 41310U 16005A   24048.88243987  .00000055  00000+0  00000+0 0  9996
2 41310   0.0386  71.8021 0004554 225.6879 176.4846  1.00272542 29598
SES-9                   
1 41380U 16013A   24048.91435594 -.00000352  00000+0  00000+0 0  9994
2 41380   0.0437 285.7729 0001113  98.3662 200.6843  1.00272390 28919
EUTELSAT 65 WEST A      
1 41382U 16014A   24049.09288983 -.00000283  00000+0  00000+0 0  9998
2 41382   0.0540 342.3734 0002222 339.6481 153.7399  1.00273210 29124
IRNSS-1F                
1 41384U 16015A   24048.89750251  .00000149  00000+0  00000+0 0  9990
2 41384   3.2921 122.4818 0020506 188.2369 192.2123  1.00267230 29142
BEIDOU-2 IGSO-6         
1 41434U 16021A   24048.96299449 -.00000131  00000+0  00000+0 0  9990
2 41434  59.0055  46.5611 0050906 225.0057 315.7321  1.00293205 28943
IRNSS-1G                
1 41469U 16027A   24048.84520190 -.00000344  00000+0  00000+0 0  9997
2 41469   3.1740 123.8204 0004595 288.4220 168.7238  1.00277634 28656
JCSAT-2B                
1 41471U 16028A   24048.85007517 -.00000172  00000+0  00000+0 0  9994
2 41471   0.0154 114.9781 0001031 195.4937 296.8321  1.00270929 28598
THAICOM 8               
1 41552U 16031A   24048.93638377 -.00000128  00000+0  00000+0 0  9992
2 41552   0.0563  42.3130 0003268 302.8322 217.8642  1.00272211 28191
INTELSAT 31 (IS-31)     
1 41581U 16035A   24049.08695087 -.00000158  00000+0  00000+0 0  9999
2 41581   0.0117 127.1115 0002048  65.3401 251.3144  1.00271761 28163
BEIDOU-2 G7             
1 41586U 16037A   24048.91555594 -.00000361  00000+0  00000+0 0  9991
2 41586   1.6185  67.8942 0009501 316.4600 203.1679  1.00272577 28265
